*******************************************************************************
Ephemeris / WWW_USER Tue Mar 27 20:11:50 2018 Pasadena, USA      / Horizons    
*******************************************************************************
Target body name: Io (501)                        {source: jup310}
Center body name: Solar System Barycenter (0)     {source: DE431mx}
Center-site name: BODY CENTER
*******************************************************************************
Start time      : A.D. 2000-Jan-01 00:00:00.0000 TDB
Stop  time      : A.D. 2010-Jan-01 00:00:00.0000 TDB
Step-size       : 7200 minutes
*******************************************************************************
Center geodetic : 0.00000000,0.00000000,0.0000000 {E-lon(deg),Lat(deg),Alt(km)}
Center cylindric: 0.00000000,0.00000000,0.0000000 {E-lon(deg),Dxy(km),Dz(km)}
Center radii    : (undefined)                                                  
Output units    : AU-D                                                         
Output type     : GEOMETRIC cartesian states
Output format   : 2 (position and velocity)
Reference frame : ICRF/J2000.0                                                 
Coordinate systm: Ecliptic and Mean Equinox of Reference Epoch                 
*******************************************************************************
JDTDB
   X     Y     Z
   VX    VY    VZ
*******************************************************************************
$$SOE
2453644.500000000 = A.D. 2005-Oct-01 00:00:00.0000 TDB 
  -4.827132400691897E+00 -2.518430513419759E+00  1.183675470571414E-01
   1.317978987064387E-02 -4.044306395389767E-03  1.767042959809380E-04
2453649.500000000 = A.D. 2005-Oct-06 00:00:00.0000 TDB 
  -4.812840637046826E+00 -2.549138245158923E+00  1.181089967494773E-01
   9.946696202381743E-03 -1.393707190056809E-02 -2.326042472425959E-04
2453654.500000000 = A.D. 2005-Oct-11 00:00:00.0000 TDB 
  -4.796009942381756E+00 -2.577757910430249E+00  1.179505627469976E-01
  -2.628839476011157E-04 -1.553763691318167E-02 -4.426947140067471E-04
2453659.500000000 = A.D. 2005-Oct-16 00:00:00.0000 TDB 
  -4.776156893276846E+00 -2.607400722657473E+00  1.177862971609347E-01
  -6.396205882897570E-03 -7.238561005421846E-03 -2.335157160662757E-04
2453664.500000000 = A.D. 2005-Oct-21 00:00:00.0000 TDB 
  -4.755785601929585E+00 -2.639929621313748E+00  1.175118439571029E-01
  -1.912978417676593E-03  2.113959254562916E-03  1.693291527649061E-04
2453669.500000000 = A.D. 2005-Oct-26 00:00:00.0000 TDB 
  -4.737728322245076E+00 -2.674001873933603E+00  1.171344714764910E-01
   8.527239959633883E-03  2.525732095368420E-03  3.346305244938105E-04
2453674.500000000 = A.D. 2005-Oct-31 00:00:00.0000 TDB 
  -4.722118149905277E+00 -2.706462050516539E+00  1.167668126640108E-01
   1.370316655602112E-02 -6.564716018884325E-03  7.763927170116009E-05
2453679.500000000 = A.D. 2005-Nov-05 00:00:00.0000 TDB 
  -4.706178924608849E+00 -2.735745161011236E+00  1.165063547461968E-01
   7.963637046409705E-03 -1.524353567991540E-02 -3.243923503490909E-04
2453684.500000000 = A.D. 2005-Nov-10 00:00:00.0000 TDB 
  -4.687261448680907E+00 -2.763613047138146E+00  1.163279034825482E-01
  -2.322571526662886E-03 -1.407182721608327E-02 -4.353300305267793E-04
2453689.500000000 = A.D. 2005-Nov-15 00:00:00.0000 TDB 
  -4.665726744236283E+00 -2.793197685699738E+00  1.161124102780089E-01
  -6.041155550288388E-03 -4.427718769719733E-03 -1.422223288421746E-04
2453694.500000000 = A.D. 2005-Nov-20 00:00:00.0000 TDB 
  -4.644489769766725E+00 -2.825631317296970E+00  1.157759818152363E-01
   7.557671414004772E-04  3.410682736563682E-03  2.396419071755089E-04
2453699.500000000 = A.D. 2005-Nov-25 00:00:00.0000 TDB 
  -4.625918891448743E+00 -2.858868940238917E+00  1.153580532093582E-01
   1.091951170631246E-02  1.064781588746482E-03  3.011092383639308E-04
2453704.500000000 = A.D. 2005-Nov-30 00:00:00.0000 TDB 
  -4.609308506059764E+00 -2.889836491396933E+00  1.149805719080097E-01
   1.350573596201962E-02 -9.048138564678031E-03 -3.077817019435005E-05
2453709.500000000 = A.D. 2005-Dec-05 00:00:00.0000 TDB 
  -4.591575239101780E+00 -2.917757274104105E+00  1.147170269247187E-01
   5.669386144032764E-03 -1.589518349290181E-02 -3.972849619137471E-04
2453714.500000000 = A.D. 2005-Dec-10 00:00:00.0000 TDB 
  -4.570623840580762E+00 -2.945029294965477E+00  1.145111263774475E-01
  -3.955365413756893E-03 -1.202959409657559E-02 -4.011546199152380E-04
2453719.500000000 = A.D. 2005-Dec-15 00:00:00.0000 TDB 
  -4.547629343727194E+00 -2.974580298742174E+00  1.142392799454137E-01
  -4.990187022690247E-03 -1.726025381247415E-03 -4.494186045652725E-05
2453724.500000000 = A.D. 2005-Dec-20 00:00:00.0000 TDB 
  -4.525711244639010E+00 -3.006729239598627E+00  1.138440070685167E-01
   3.634536705368947E-03  4.040803150761676E-03  2.887559753163773E-04
2453729.500000000 = A.D. 2005-Dec-25 00:00:00.0000 TDB 
  -4.506610048115201E+00 -3.038878278193896E+00  1.133939513238209E-01
   1.280283185029649E-02 -8.928585033836784E-04  2.420585061160508E-04
2453734.500000000 = A.D. 2005-Dec-30 00:00:00.0000 TDB 
  -4.488827666434102E+00 -3.068252866633514E+00  1.130118135414647E-01
   1.262212761759902E-02 -1.130801894155587E-02 -1.413279531664858E-04
2453739.500000000 = A.D. 2006-Jan-04 00:00:00.0000 TDB 
  -4.469190134506915E+00 -3.094916105516199E+00  1.127420527700686E-01
   3.246108315555413E-03 -1.583173634085192E-02 -4.464405059121263E-04
2453744.500000000 = A.D. 2006-Jan-09 00:00:00.0000 TDB 
  -4.446312047346524E+00 -3.121734511295034E+00  1.125010707434495E-01
  -5.029231423693328E-03 -9.544042392504719E-03 -3.430090368545051E-04
2453749.500000000 = A.D. 2006-Jan-14 00:00:00.0000 TDB 
  -4.422098331864866E+00 -3.151223867832911E+00  1.121694680822629E-01
  -3.300577551429845E-03  6.816668556986535E-04  5.087496182542427E-05
2453754.500000000 = A.D. 2006-Jan-19 00:00:00.0000 TDB 
  -4.399643630197681E+00 -3.182864313085872E+00  1.117204293534614E-01
   6.538234566531428E-03  3.969319801830409E-03  3.127345648149196E-04
2453759.500000000 = A.D. 2006-Jan-24 00:00:00.0000 TDB 
  -4.379941848955818E+00 -3.213690800360057E+00  1.112468271485135E-01
   1.406224395784023E-02 -3.192984594871205E-03  1.613496986480303E-04
2453764.500000000 = A.D. 2006-Jan-29 00:00:00.0000 TDB 
  -4.360813456987702E+00 -3.241427350230470E+00  1.108633526937290E-01
   1.113135884912222E-02 -1.317171144478738E-02 -2.466169107847968E-04
2453769.500000000 = A.D. 2006-Feb-03 00:00:00.0000 TDB 
  -4.339212309549614E+00 -3.266970830964734E+00  1.105824439336454E-01
   8.827096902644502E-04 -1.505039126028488E-02 -4.689747141638369E-04
2453774.500000000 = A.D. 2006-Feb-08 00:00:00.0000 TDB 
  -4.314562257236473E+00 -3.293452028293974E+00  1.102990925340936E-01
  -5.448143149910725E-03 -6.781351413734263E-03 -2.654460972124140E-04
2453779.500000000 = A.D. 2006-Feb-13 00:00:00.0000 TDB 
  -4.289369395458840E+00 -3.322796218955475E+00  1.099064339123102E-01
  -1.074689021156514E-03  2.638067704623697E-03  1.380930283493295E-04
2453784.500000000 = A.D. 2006-Feb-18 00:00:00.0000 TDB 
  -4.266477629454385E+00 -3.353680893161882E+00  1.094103198515174E-01
   9.274895738015994E-03  3.213776686908664E-03  3.094433640481646E-04
2453789.500000000 = A.D. 2006-Feb-23 00:00:00.0000 TDB 
  -4.246061003533637E+00 -3.382985640455033E+00  1.089212647065696E-01
   1.462319051256046E-02 -5.662242029004589E-03  6.416909191725724E-05
2453794.500000000 = A.D. 2006-Feb-28 00:00:00.0000 TDB 
  -4.225421453539110E+00 -3.409094768556073E+00  1.085377418089318E-01
   9.158075366410199E-03 -1.449495768772206E-02 -3.396399083691553E-04
2453799.500000000 = A.D. 2006-Mar-05 00:00:00.0000 TDB 
  -4.201854126106630E+00 -3.433674564591620E+00  1.082393795585865E-01
  -1.234486222356171E-03 -1.359259847899129E-02 -4.636612795699011E-04
2453804.500000000 = A.D. 2006-Mar-10 00:00:00.0000 TDB 
  -4.175628612026529E+00 -3.459897257301025E+00  1.079072378554061E-01
  -5.167912402498288E-03 -3.925016825220162E-03 -1.743931684054767E-04
2453809.500000000 = A.D. 2006-Mar-15 00:00:00.0000 TDB 
  -4.149680069664671E+00 -3.488960074465782E+00  1.074544677555640E-01
   1.543183024379947E-03  4.015693137279890E-03  2.100687320376705E-04
2453814.500000000 = A.D. 2006-Mar-20 00:00:00.0000 TDB 
  -4.126399585857206E+00 -3.518833017991056E+00  1.069191341112025E-01
   1.166801744682518E-02  1.839664243045068E-03  2.786815072972327E-04
2453819.500000000 = A.D. 2006-Mar-25 00:00:00.0000 TDB 
  -4.105122788171643E+00 -3.546462347822792E+00  1.064216546099326E-01
   1.446501438926317E-02 -8.110653589139854E-03 -4.294139976742880E-05
2453824.500000000 = A.D. 2006-Mar-30 00:00:00.0000 TDB 
  -4.082828663104512E+00 -3.571005586868077E+00  1.060373329364541E-01
   6.857165363134240E-03 -1.516867918657967E-02 -4.141859478485421E-04
2453829.500000000 = A.D. 2006-Apr-04 00:00:00.0000 TDB 
  -4.057350754674450E+00 -3.594780938472374E+00  1.057143601748139E-01
  -2.940338922371211E-03 -1.154953812443159E-02 -4.313346091849325E-04
2453834.500000000 = A.D. 2006-Apr-09 00:00:00.0000 TDB 
  -4.029779037645439E+00 -3.620778124713507E+00  1.053282998602751E-01
  -4.189869356970887E-03 -1.167554452529834E-03 -7.677902947924038E-05
2453839.500000000 = A.D. 2006-Apr-14 00:00:00.0000 TDB 
  -4.003268102221910E+00 -3.649378050376394E+00  1.048185417194215E-01
   4.385046766321857E-03  4.731462930515011E-03  2.613773367184743E-04
2453844.500000000 = A.D. 2006-Apr-19 00:00:00.0000 TDB 
  -3.979591774619069E+00 -3.677987599187519E+00  1.042526043027396E-01
   1.356232149152913E-02 -3.800531311093571E-05  2.223630227940823E-04
2453849.500000000 = A.D. 2006-Apr-24 00:00:00.0000 TDB 
  -3.957293309591603E+00 -3.703840186003277E+00  1.037521977301134E-01
   1.361404316612817E-02 -1.035247955796496E-02 -1.528840181818786E-04
